0 ARIANE 5 R/B
1 36746U 10032C   13282.07066557  .00004851  00000-0  15328-2 0  7014
2 36746 001.8094 311.5766 7228533 077.1677 348.4616 02.34374954 27781
0 ARIANE 5 R/B
1 36746U 10032C   13287.65742438  .00005343  00000-0  17505-2 0  7030
2 36746 001.8051 309.5389 7228908 081.6181 022.7306 02.34421506 27917
0 ARIANE 5 R/B
1 36746U 10032C   13290.60008824  .00004424  00000-0  11903-2 0  7049
2 36746 001.7989 307.9747 7230956 084.4320 346.2332 02.34449720 27751
0 ARIANE 5 R/B
1 36746U 10032C   13290.64467903  .00006025  00000-0  19391-2 0  7048
2 36746 001.8040 308.4242 7228962 084.0258 023.8761 02.34454254 27983
0 ARIANE 5 R/B
1 36746U 10032C   13291.48387235  .00006118  00000-0  19458-2 0  7058
2 36746 001.8037 308.1025 7228968 084.7104 012.1963 02.34462812 28006
0 ARIANE 5 R/B
1 36746U 10032C   13293.62683341  .00005717  00000-0  17553-2 0  7062
2 36746 001.8007 307.2978 7229043 086.4428 021.0831 02.34488893 28058
0 ARIANE 5 R/B
1 36746U 10032C   13294.85664366  .00006280  00000-0  18832-2 0  7072
2 36746 001.7993 306.8394 7229068 087.4329 339.2585 02.34501274 28088
